2022-019A               
1 51824U 22019A   22088.43997536  .00003350  00000+0  21653-3 0  9990
2 51824  97.5165 164.6186 0021263 163.1095 326.0476 15.08710682  4578
2022-019B               
1 51825U 22019B   22088.43569644  .00003078  00000+0  19815-3 0  9990
2 51825  97.5164 164.6205 0019465 159.3970 333.8410 15.08949598  4563
2022-019C               
1 51826U 22019C   22088.43075346  .00004010  00000+0  25535-3 0  9995
2 51826  97.5157 164.6209 0018968 160.8805 327.9918 15.09182184  4569
2022-019D               
1 51827U 22019D   22088.55805749  .00003235  00000+0  20668-3 0  9997
2 51827  97.5175 164.7560 0017668 159.8761 307.1272 15.09221619  4588
2022-019E               
1 51828U 22019E   22088.42866097  .00004116  00000+0  26133-3 0  9999
2 51828  97.5169 164.6295 0018398 161.9763 326.9143 15.09287533  4564
2022-019F               
1 51829U 22019F   22088.46933756  .00006877  00000+0  43212-3 0  9994
2 51829  97.5218 164.6930 0018096 161.3098 198.8799 15.09433990  4570
2022-019G               
1 51830U 22019G   22088.46933551  .00006377  00000+0  40092-3 0  9997
2 51830  97.5156 164.6636 0018646 161.3865 198.8050 15.09430330  4574
2022-019H               
1 51831U 22019H   22088.42710569  .00003803  00000+0  24103-3 0  9992
2 51831  97.5177 164.6317 0018797 169.8062 322.8801 15.09392011  4568
2022-019J               
1 51832U 22019J   22088.42704756  .00002819  00000+0  17976-3 0  9990
2 51832  97.5158 164.6293 0019131 168.3019 324.3962 15.09371047  4561
2022-019K               
1 51833U 22019K   22088.46393802  .00004685  00000+0  29325-3 0  9995
2 51833  97.5152 164.6754 0016918 164.6917 204.7941 15.09756735  4574
2022-019L               
1 51834U 22019L   22088.54943985  .00003784  00000+0  23780-3 0  9996
2 51834  97.5181 164.7779 0017445 166.6096 306.2828 15.09721766  4580
2022-019M               
1 51835U 22019M   22088.46444330  .00003839  00000+0  24119-3 0  9996
2 51835  97.5182 164.6836 0017357 167.7334 204.2568 15.09729581  4574
2022-019N               
1 51836U 22019N   22088.46290624  .00005713  00000+0  35565-3 0  9992
2 51836  97.5166 164.6862 0017226 167.6482 204.5897 15.09862614  4577
2022-019P               
1 51837U 22019P   22088.54347429  .00005514  00000+0  34187-3 0  9996
2 51837  97.5129 164.7531 0016614 168.2484 300.0603 15.10031490  4580
2022-019Q               
1 51838U 22019Q   22088.54414422  .00003675  00000+0  22951-3 0  9997
2 51838  97.5172 164.7784 0016208 166.5796 306.3633 15.09987124  4589
2022-019R               
1 51839U 22019R   22088.46904231  .00003660  00000+0  22857-3 0  9990
2 51839  97.5158 164.6963 0016213 167.1543 258.2851 15.09990459  4576
2022-019S               
1 51840U 22019S   22088.46848444  .00003666  00000+0  22878-3 0  9994
2 51840  97.5173 164.7005 0016181 165.1721 259.8562 15.10014778  4572
2022-019T               
1 51841U 22019T   22088.46719133  .00003624  00000+0  22586-3 0  9997
2 51841  97.5165 164.7028 0016022 164.2278 260.7038 15.10078403  4574
2022-019U               
1 51842U 22019U   22088.56195787  .00006880  00000+0  28038-3 0  9997
2 51842  97.5634 165.5633 0072442 107.9605   3.5103 15.22360262  4625
2022-019V               
1 51843U 22019V   22088.45680230  .00002284  00000+0  14381-3 0  9998
2 51843  97.5198 164.7084 0016323 171.2630 201.0684 15.10066449  4570
2022-019W               
1 51844U 22019W   22088.42934284  .00003761  00000+0  23927-3 0  9994
2 51844  97.5156 164.6273 0019470 169.6352 319.2602 15.09243973  4469
2022-019X               
1 51845U 22019X   22088.41718539  .00004564  00000+0  28484-3 0  9992
2 51845  97.5175 164.6472 0017041 167.5756 321.3794 15.09880009  4484
2022-019Y               
1 51846U 22019Y   22088.54628104  .00003726  00000+0  23325-3 0  9993
2 51846  97.5156 164.7715 0016907 165.1443 308.1797 15.09884229  4509
STRIX-BETA              
1 51847U 22020A   22088.44217111  .00002362  00000+0  18895-3 0  9998
2 51847  97.7753 142.2360 0012962 187.0914 297.9637 15.01122601  4289
ELECTRON KICK STAGE R/B 
1 51848U 22020B   22087.92434333  .00006137  00000+0  30020-3 0  9996
2 51848  97.0888 139.1034 0058094 292.1425  67.3650 15.17043856  4258
GOES 18                 
1 51850U 22021A   22087.90353560 -.00000205  00000+0  00000+0 0  9992
2 51850   0.0413 306.5658 0000178 215.0644 260.5214  1.00274355   355
ATLAS 5 CENTAUR R/B     
1 51851U 22021B   22083.79029212 -.00000158  00000+0  00000+0 0  9997
2 51851   9.6343 331.8919 4765990 182.3001 174.1901  1.85569205   415
STARLINK-3542           
1 51852U 22022A   22088.16667824 -.00717317  00000+0 -82269-2 0  9995
2 51852  53.2173  17.8385 0001202  60.2610   2.7743 15.63717305  5282
STARLINK-3539           
1 51853U 22022B   22088.16667824 -.00717265  00000+0 -82681-2 0  9996
2 51853  53.2173  17.8391 0001190  59.6331 359.8894 15.63589464  5239
STARLINK-3541           
1 51854U 22022C   22088.16667824 -.00717099  00000+0 -81828-2 0  9994
2 51854  53.2173  17.8382 0001105  71.1226 355.3870 15.63845026  5287
STARLINK-3545           
1 51855U 22022D   22087.91667824 -.00717005  00000+0 -79758-2 0  9993
2 51855  53.2174  19.0579 0001328  51.7832  52.8966 15.64482956  3682
STARLINK-3568           
1 51856U 22022E   22087.91667824 -.00717073  00000+0 -80174-2 0  9993
2 51856  53.2174  19.0582 0001332  50.1395  51.2578 15.64355195  3685
STARLINK-3571           
1 51857U 22022F   22087.91667824 -.00716846  00000+0 -78927-2 0  9994
2 51857  53.2174  19.0566 0001369  49.3680  61.7617 15.64738506  3686
STARLINK-3563           
1 51858U 22022G   22087.91667824 -.00716996  00000+0 -79351-2 0  9993
2 51858  53.2174  19.0571 0001308  53.3381  54.5858 15.64610758  3684
STARLINK-3560           
1 51859U 22022H   22087.91667824 -.00074297  00000+0 -52878-3 0  9991
2 51859  53.2191  18.9070 0001004 100.2555  97.6257 15.73238507  3683
STARLINK-3559           
1 51860U 22022J   22088.50001157  .00012994  00000+0  97091-4 0  9991
2 51860  53.2178  16.0226 0001298  81.1827 181.0284 15.73142269  5292
STARLINK-3562           
1 51861U 22022K   22088.50001157 -.00008134  00000+0 -53678-4 0  9998
2 51861  53.2188  16.0181 0001257  90.1100 174.6917 15.73164613  5291
STARLINK-3508           
1 51862U 22022L   22088.16667824 -.00020313  00000+0 -14066-3 0  9990
2 51862  53.2197  17.6721 0001240  85.8925  88.0423 15.73201039  5291
STARLINK-3555           
1 51863U 22022M   22087.91667824 -.00067040  00000+0 -47629-3 0  9992
2 51863  53.2191  18.9019 0001074  90.7906 109.6591 15.73238185  3688
STARLINK-3548           
1 51864U 22022N   22088.16667824 -.00027240  00000+0 -19025-3 0  9998
2 51864  53.2181  17.6700 0001110  76.5444  98.6258 15.73206362  5299
STARLINK-3503           
1 51865U 22022P   22087.91667824 -.00066369  00000+0 -47151-3 0  9997
2 51865  53.2182  18.8994 0000987  96.3384 105.3604 15.73234900  3684
STARLINK-3553           
1 51866U 22022Q   22087.91667824 -.00070931  00000+0 -50387-3 0  9993
2 51866  53.2190  18.9027 0001199  88.8420 110.9202 15.73263295  3680
STARLINK-3590           
1 51867U 22022R   22087.91667824 -.00079482  00000+0 -56607-3 0  9995
2 51867  53.2192  18.8987 0001244  94.8962 107.4430 15.73248780  3682
STARLINK-3578           
1 51868U 22022S   22088.50001157 -.00046398  00000+0 -32873-3 0  9992
2 51868  53.2186  16.0138 0001146  85.6105 181.0912 15.73148555  5293
STARLINK-3588           
1 51869U 22022T   22087.91667824 -.00073982  00000+0 -52623-3 0  9990
2 51869  53.2192  18.8946 0001011 100.3470 103.8260 15.73250487  3686
STARLINK-3591           
1 51870U 22022U   22087.91667824 -.00092434  00000+0 -65892-3 0  9997
2 51870  53.2190  18.8961 0001112  92.4580 110.5704 15.73289227  3680
STARLINK-3567           
1 51871U 22022V   22087.91667824 -.00070219  00000+0 -49919-3 0  9997
2 51871  53.2193  18.8933 0001158  83.4321 121.5125 15.73241851  3686
STARLINK-3554           
1 51872U 22022W   22088.50001157 -.00053467  00000+0 -38001-3 0  9991
2 51872  53.2188  16.0088 0001329  74.5272 194.7500 15.73135802  5294
STARLINK-3582           
1 51873U 22022X   22088.58334491  .00968136  00000+0  64168-2 0  9998
2 51873  53.2180  15.5792 0001380  82.4784 302.2765 15.72581865  5300
STARLINK-3574           
1 51874U 22022Y   22087.91667824 -.00068757  00000+0 -48806-3 0  9998
2 51874  53.2189  18.8911 0001161  83.1562 122.3817 15.73268552  3682
STARLINK-3585           
1 51875U 22022Z   22088.50001157 -.00065383  00000+0 -46455-3 0  9996
2 51875  53.2193  16.0007 0001245  80.1803 193.4711 15.73225770  5298
STARLINK-3583           
1 51876U 22022AA  22087.91667824 -.00082265  00000+0 -58653-3 0  9991
2 51876  53.2191  18.8902 0001219  84.9764 121.2400 15.73237564  3689
STARLINK-3556           
1 51877U 22022AB  22087.91667824 -.00046573  00000+0 -32899-3 0  9998
2 51877  53.2194  18.8844 0001179  74.8800 134.5177 15.73219103  3689
STARLINK-3575           
1 51878U 22022AC  22088.50001157 -.00063978  00000+0 -45438-3 0  9997
2 51878  53.2188  16.0016 0001150  91.4038 181.6054 15.73227122  5297
STARLINK-3572           
1 51879U 22022AD  22087.91667824 -.00065212  00000+0 -46275-3 0  9994
2 51879  53.2196  18.8825 0001299  85.5735 125.0428 15.73254205  3687
STARLINK-3566           
1 51880U 22022AE  22088.58334491  .00888061  00000+0  59233-2 0  9991
2 51880  53.2181  15.5751 0001395  88.4046 298.2365 15.72630506  5304
STARLINK-3504           
1 51881U 22022AF  22088.50001157 -.00075675  00000+0 -53894-3 0  9993
2 51881  53.2191  15.9930 0001184  76.0409 201.4457 15.73230142  5346
STARLINK-3570           
1 51882U 22022AG  22087.91667824 -.00065725  00000+0 -46676-3 0  9992
2 51882  53.2191  18.8826 0001352  76.0028 134.0247 15.73238765  3689
STARLINK-3576           
1 51883U 22022AH  22087.91667824 -.00077009  00000+0 -54799-3 0  9996
2 51883  53.2193  18.8767 0000864  84.6235 128.5930 15.73256930  3689
